NORAD_CAT_ID,OBJECT_NAME,OBJECT_TYPE,EPOCH,MEAN_MOTION,ECCENTRICITY,INCLINATION,RA_OF_ASC_NODE,ARG_OF_PERICENTER,MEAN_ANOMALY,BSTAR,MEAN_MOTION_DOT,MEAN_MOTION_DDOT,TLE_LINE0,TLE_LINE1,TLE_LINE2,SEMIMAJOR_AXIS,PERIOD,APOGEE,PERIGEE,DECAYED
53839.0,STARLINK-4784,PAYLOAD,2023-05-12 15:21:06,15.08838945,0.0001064,53.2174,247.4222,83.4193,276.6921,1.4378e-05,-5.9e-07,0.0,0 STARLINK-4784,1 53839U 22114X   23132.63966159 -.00000059  00000-0  14378-4 0  9996,2 53839  53.2174 247.4222 0001064  83.4193 276.6921 15.08838945 37165,6917.884,95.438,540.485,539.013,0.0
53839.0,STARLINK-4784,PAYLOAD,2023-05-13 13:36:30,15.08842246,0.000109,53.217,243.2546,86.4343,273.6774,-2.2931e-05,-6.53e-06,0.0,0 STARLINK-4784,1 53839U 22114X   23133.56702147 -.00000653  00000-0 -22931-4 0  9999,2 53839  53.2170 243.2546 0001090  86.4343 273.6774 15.08842246 36760,6917.874,95.437,540.493,538.984,0.0
53839.0,STARLINK-4784,PAYLOAD,2023-05-13 16:47:16,15.08845756,0.0001079,53.2173,242.6603,88.9101,271.2015,-1.4444e-05,-5.18e-06,0.0,0 STARLINK-4784,1 53839U 22114X   23133.69949862 -.00000518  00000-0 -14444-4 0  9990,2 53839  53.2173 242.6603 0001079  88.9101 271.2015 15.08845756 37320,6917.863,95.437,540.474,538.981,0.0
53839.0,STARLINK-4784,PAYLOAD,2023-05-14 13:27:17,15.08846364,0.0001058,53.2174,238.7992,73.0599,287.0509,-4.5034e-05,-1.005e-05,0.0,0 STARLINK-4784,1 53839U 22114X   23134.56061984 -.00001005  00000-0 -45034-4 0  9998,2 53839  53.2174 238.7992 0001058  73.0599 287.0509 15.08846364 37454,6917.861,95.437,540.458,538.994,0.0
53839.0,STARLINK-4784,PAYLOAD,2023-05-14 16:38:03,15.08847037,0.0001376,53.217,238.2014,66.7693,293.3443,2.4001e-05,9.4e-07,0.0,0 STARLINK-4784,1 53839U 22114X   23134.69309606  .00000094  00000-0  24001-4 0  9994,2 53839  53.2170 238.2014 0001376  66.7693 293.3443 15.08847037 37474,6917.859,95.437,540.676,538.772,0.0
53839.0,STARLINK-4784,PAYLOAD,2023-05-15 06:56:32,15.08832535,0.0001002,53.2165,235.5262,76.1635,283.9468,-2.8951e-05,-7.48e-06,0.0,0 STARLINK-4784,1 53839U 22114X   23135.28926623 -.00000748  00000-0 -28951-4 0  9990,2 53839  53.2165 235.5262 0001002  76.1635 283.9468 15.08832535 37020,6917.903,95.438,540.461,539.075,0.0
53839.0,STARLINK-4784,PAYLOAD,2023-05-15 13:18:04,15.08836571,0.0001038,53.2164,234.3367,78.4749,281.636,3.2987e-06,-2.35e-06,0.0,0 STARLINK-4784,1 53839U 22114X   23135.55422309 -.00000235  00000-0  32987-5 0  9997,2 53839  53.2164 234.3367 0001038  78.4749 281.6360 15.08836571 37606,6917.891,95.438,540.474,539.038,0.0
53839.0,STARLINK-4784,PAYLOAD,2023-05-15 16:28:50,15.08840558,0.0001015,53.2163,233.7419,77.9391,282.1715,-1.4938e-05,-5.25e-06,0.0,0 STARLINK-4784,1 53839U 22114X   23135.68670118 -.00000525  00000-0 -14938-4 0  9992,2 53839  53.2163 233.7419 0001015  77.9391 282.1715 15.08840558 37080,6917.879,95.438,540.446,539.042,0.0
53839.0,STARLINK-4784,PAYLOAD,2023-05-16 13:08:52,15.08840909,0.0001086,53.216,229.8757,92.3525,267.7591,-8.5689e-05,-1.651e-05,0.0,0 STARLINK-4784,1 53839U 22114X   23136.54782590 -.00001651  00000-0 -85689-4 0  9998,2 53839  53.2160 229.8757 0001086  92.3525 267.7591 15.08840909 37751,6917.878,95.437,540.494,538.991,0.0
53839.0,STARLINK-4784,PAYLOAD,2023-05-16 16:19:38,15.08853328,0.0001017,53.2161,229.2808,93.4881,266.6227,-0.00020416,-3.537e-05,0.0,0 STARLINK-4784,1 53839U 22114X   23136.68030218 -.00003537  00000-0 -20416-3 0  9997,2 53839  53.2161 229.2808 0001017  93.4881 266.6227 15.08853328 37779,6917.84,95.437,540.408,539.001,0.0
53839.0,STARLINK-4784,PAYLOAD,2023-05-16 22:41:10,15.08844038,9.98e-05,53.2161,228.0915,101.626,258.4844,-4.7272e-05,-1.04e-05,0.0,0 STARLINK-4784,1 53839U 22114X   23136.94526154 -.00001040  00000-0 -47272-4 0  9992,2 53839  53.2161 228.0915 0000998 101.6260 258.4844 15.08844038 37272,6917.868,95.437,540.423,539.043,0.0
53839.0,STARLINK-4784,PAYLOAD,2023-05-17 11:24:16,15.0883421,0.0001126,53.2165,225.7123,89.7801,270.332,2.4882e-05,1.08e-06,0.0,0 STARLINK-4784,1 53839U 22114X   23137.47518760  .00000108  00000-0  24882-4 0  9999,2 53839  53.2165 225.7123 0001126  89.7801 270.3320 15.08834210 37354,6917.898,95.438,540.542,538.984,0.0
53839.0,STARLINK-4784,PAYLOAD,2023-05-17 16:10:25,15.08838582,0.0001076,53.2164,224.8203,85.8498,274.2617,3.7099e-05,3.03e-06,0.0,0 STARLINK-4784,1 53839U 22114X   23137.67390471  .00000303  00000-0  37099-4 0  9999,2 53839  53.2164 224.8203 0001076  85.8498 274.2617 15.08838582 37926,6917.885,95.438,540.494,539.005,0.0
53839.0,STARLINK-4784,PAYLOAD,2023-05-18 12:50:26,15.08837631,0.0001062,53.2163,220.9548,86.784,273.3274,-1.3965e-05,-5.1e-06,0.0,0 STARLINK-4784,1 53839U 22114X   23138.53503039 -.00000510  00000-0 -13965-4 0  9999,2 53839  53.2163 220.9548 0001062  86.7840 273.3274 15.08837631 37518,6917.888,95.438,540.487,539.018,0.0
53839.0,STARLINK-4784,PAYLOAD,2023-05-18 16:01:13,15.08777816,0.0001454,53.2166,220.3603,86.9029,273.213,0.00074844,0.00011623,0.0,0 STARLINK-4784,1 53839U 22114X   23138.66752099  .00011623  00000-0  74844-3 0  9992,2 53839  53.2166 220.3603 0001454  86.9029 273.2130 15.08777816 37533,6918.07,95.441,540.941,538.93,0.0
53839.0,STARLINK-4784,PAYLOAD,2023-05-18 22:22:45,15.08838662,0.0001137,53.2167,219.1709,85.193,274.9192,-1.3355e-05,-5e-06,0.0,0 STARLINK-4784,1 53839U 22114X   23138.93247019 -.00000500  00000-0 -13355-4 0  9998,2 53839  53.2167 219.1709 0001137  85.1930 274.9192 15.08838662 38115,6917.884,95.438,540.536,538.963,0.0
53839.0,STARLINK-4784,PAYLOAD,2023-05-19 09:30:27,15.08816761,0.0001087,53.2166,217.0893,83.7321,276.3795,0.0002802,4.172e-05,0.0,0 STARLINK-4784,1 53839U 22114X   23139.39615564  .00004172  00000-0  28020-3 0  9994,2 53839  53.2166 217.0893 0001087  83.7321 276.3795 15.08816761 37645,6917.951,95.439,540.568,539.064,0.0
53839.0,STARLINK-4784,PAYLOAD,2023-05-19 11:05:50,15.08838843,0.0001167,53.2165,216.7919,85.5253,274.5872,-6.0178e-06,-3.84e-06,0.0,0 STARLINK-4784,1 53839U 22114X   23139.46239055 -.00000384  00000-0 -60178-5 0  9994,2 53839  53.2165 216.7919 0001167  85.5253 274.5872 15.08838843 37654,6917.884,95.438,540.556,538.942,0.0
53839.0,STARLINK-4784,PAYLOAD,2023-05-20 10:56:36,15.08845066,0.0001081,53.2158,212.3315,81.1072,279.0043,5.0715e-05,5.2e-06,0.0,0 STARLINK-4784,1 53839U 22114X   23140.45598379  .00000520  00000-0  50715-4 0  9997,2 53839  53.2158 212.3315 0001081  81.1072 279.0043 15.08845066 37806,6917.865,95.437,540.478,538.982,0.0
53839.0,STARLINK-4784,PAYLOAD,2023-05-20 14:07:22,15.08842892,0.0001109,53.2159,211.7364,82.7377,277.3741,0.0001934,2.792e-05,0.0,0 STARLINK-4784,1 53839U 22114X   23140.58845974  .00002792  00000-0  19340-3 0  9998,2 53839  53.2159 211.7364 0001109  82.7377 277.3741 15.08842892 38362,6917.872,95.437,540.504,538.969,0.0
53839.0,STARLINK-4784,PAYLOAD,2023-05-21 13:58:10,15.08843685,0.0001059,53.215,207.2762,84.568,275.5433,-5.9079e-08,-2.89e-06,0.0,0 STARLINK-4784,1 53839U 22114X   23141.58206163 -.00000289  00000-0 -59079-7 0  9998,2 53839  53.2150 207.2762 0001059  84.5680 275.5433 15.08843685 38512,6917.869,95.437,540.467,539.002,0.0
53839.0,STARLINK-4784,PAYLOAD,2023-05-21 21:55:06,15.08838347,0.0001076,53.2148,205.7895,82.9112,277.2003,-4.2707e-05,-9.67e-06,0.0,0 STARLINK-4784,1 53839U 22114X   23141.91326597 -.00000967  00000-0 -42707-4 0  9999,2 53839  53.2148 205.7895 0001076  82.9112 277.2003 15.08838347 38566,6917.885,95.438,540.495,539.006,0.0
53839.0,STARLINK-4784,PAYLOAD,2023-05-22 04:16:39,15.08833021,0.0001259,53.2148,204.6008,80.0086,280.1048,-0.00010635,-1.98e-05,0.0,0 STARLINK-4784,1 53839U 22114X   23142.17823249 -.00001980  00000-0 -10635-3 0  9994,2 53839  53.2148 204.6008 0001259  80.0086 280.1048 15.08833021 38063,6917.902,95.438,540.638,538.896,0.0
53839.0,STARLINK-4784,PAYLOAD,2023-05-22 13:48:57,15.08836705,0.0001109,53.2159,202.8157,95.7119,264.3999,-9.8152e-05,-1.849e-05,0.0,0 STARLINK-4784,1 53839U 22114X   23142.57567016 -.00001849  00000-0 -98152-4 0  9990,2 53839  53.2159 202.8157 0001109  95.7119 264.3999 15.08836705 38661,6917.89,95.438,540.523,538.988,0.0
53839.0,STARLINK-4784,PAYLOAD,2023-05-23 10:28:58,15.08833616,0.0001213,53.216,198.9494,109.5213,250.591,-1.8511e-05,-5.82e-06,0.0,0 STARLINK-4784,1 53839U 22114X   23143.43679084 -.00000582  00000-0 -18511-4 0  9999,2 53839  53.2160 198.9494 0001213 109.5213 250.5910 15.08833616 38250,6917.9,95.438,540.604,538.926,0.0
53839.0,STARLINK-4784,PAYLOAD,2023-05-24 11:55:08,15.08836484,0.0001107,53.2163,194.192,100.0198,260.0919,7.3694e-05,8.85e-06,0.0,0 STARLINK-4784,1 53839U 22114X   23144.49662975  .00000885  00000-0  73694-4 0  9994,2 53839  53.2163 194.1920 0001107 100.0198 260.0919 15.08836484 38414,6917.891,95.438,540.522,538.99,0.0
53839.0,STARLINK-4784,PAYLOAD,2023-05-24 13:30:31,15.0883698,0.0001097,53.2162,193.8945,99.8574,260.2542,7.5869e-05,9.2e-06,0.0,0 STARLINK-4784,1 53839U 22114X   23144.56286942  .00000920  00000-0  75869-4 0  9994,2 53839  53.2162 193.8945 0001097  99.8574 260.2542 15.08836980 38962,6917.89,95.438,540.514,538.996,0.0
53839.0,STARLINK-4784,PAYLOAD,2023-05-26 03:39:48,15.08837925,0.0001133,53.2162,186.7578,86.0188,274.0933,-2.3068e-05,-6.55e-06,0.0,0 STARLINK-4784,1 53839U 22114X   23146.15263891 -.00000655  00000-0 -23068-4 0  9990,2 53839  53.2162 186.7578 0001133  86.0188 274.0933 15.08837925 38669,6917.887,95.438,540.536,538.968,0.0
53839.0,STARLINK-4784,PAYLOAD,2023-05-26 13:12:06,15.08839331,0.000113,53.2162,184.9736,85.5471,274.565,-9.4145e-06,-4.38e-06,0.0,0 STARLINK-4784,1 53839U 22114X   23146.55007774 -.00000438  00000-0 -94145-5 0  9994,2 53839  53.2162 184.9736 0001130  85.5471 274.5650 15.08839331 39262,6917.882,95.438,540.529,538.966,0.0
53839.0,STARLINK-4784,PAYLOAD,2023-05-27 09:52:07,15.08838773,0.000103,53.2158,181.1078,85.9118,274.1992,4.8523e-05,4.85e-06,0.0,0 STARLINK-4784,1 53839U 22114X   23147.41119594  .00000485  00000-0  48523-4 0  9992,2 53839  53.2158 181.1078 0001030  85.9118 274.1992 15.08838773 38854,6917.884,95.438,540.462,539.037,0.0
